0 INTERBALL AURORA
1 24293U 96050C   13283.28836806  .00000041  00000-0  00000+0 0  1792
2 24293 063.9637 249.3629 4999307 251.3258 049.7177 04.14716081259258
0 INTERBALL AURORA
1 24293U 96050C   13286.18192626  .00000029  00000-0  00000+0 0  1807
2 24293 063.9623 248.5284 4999302 251.2834 049.7527 04.14716007259375
0 INTERBALL AURORA
1 24293U 96050C   13288.35209593  .00000019  00000-0  00000+0 0  1810
2 24293 063.9613 247.9024 4999294 251.2516 049.7783 04.14716019259463
0 INTERBALL AURORA
1 24293U 96050C   13290.76339781  .00000015  00000-0  00000+0 0  1828
2 24293 063.9602 247.2069 4999249 251.2163 049.8135 04.14715867259564
0 INTERBALL AURORA
1 24293U 96050C   13293.41583391  .00000019  00000-0  00000+0 0  1836
2 24293 063.9590 246.4419 4999197 251.1773 049.8585 04.14715653259672
